ISS (ZARYA)             
1 25544U 98067A   26112.19984875  .00008419  00000+0  16138-3 0  9996
2 25544  51.6321 217.2027 0006732 336.5555  23.5126 15.48885886563072
POISK                   
1 36086U 09060A   26112.19984875  .00008419  00000+0  16138-3 0  9994
2 36086  51.6321 217.2027 0006732 336.5555  23.5126 15.48885886561499
CSS (TIANHE)            
1 48274U 21035A   26112.00839879  .00024002  00000+0  26194-3 0  9994
2 48274  41.4677 304.1649 0006619 251.9708 108.0410 15.62770991284383
ISS (NAUKA)             
1 49044U 21066A   26112.19984875  .00008419  00000+0  16138-3 0  9992
2 49044  51.6321 217.2027 0006732 336.5555  23.5126 15.48885886561532
FREGAT DEB              
1 49271U 11037PF  26111.21656224  .00003101  00000+0  47935-2 0  9998
2 49271  51.6429 173.0397 0943553 156.8872 207.7485 12.41014465217975
CSS (WENTIAN)           
1 53239U 22085A   26112.00839879  .00024002  00000+0  26194-3 0  9997
2 53239  41.4677 304.1649 0006619 251.9708 108.0410 15.62770991283132
CSS (MENGTIAN)          
1 54216U 22143A   26112.00839879  .00024002  00000+0  26194-3 0  9998
2 54216  41.4677 304.1649 0006619 251.9708 108.0410 15.62770991284061
TIANZHOU-9              
1 64786U 25149A   26112.00839879  .00024002  00000+0  26194-3 0  9990
2 64786  41.4677 304.1649 0006619 251.9708 108.0410 15.62770991284075
HRC MONOBLOCK CAMERA    
1 66052U 98067XR  26111.55822406  .00052279  00000+0  48530-3 0  9999
2 66052  51.6257 208.4044 0004495 315.1253  44.9379 15.66906404 29100
HTV-X1                  
1 66174U 25241A   26112.27499633  .00004293  00000+0  14532-3 0  9998
2 66174  51.6356 222.8657 0007796 341.4964  18.5733 15.32721267 27624
SZ-21 MODULE            
1 66515U 25246C   26111.81188772  .00037549  00000+0  28116-3 0  9993
2 66515  41.4736 297.2219 0004341 305.2494  54.7943 15.71887030 24852
SHENZHOU-22             
1 66645U 25272A   26112.00839879  .00024002  00000+0  26194-3 0  9993
2 66645  41.4677 304.1649 0006619 251.9708 108.0410 15.62770991284082
SOYUZ-MS 28             
1 66664U 25275A   26112.19984875  .00008419  00000+0  16138-3 0  9995
2 66664  51.6321 217.2027 0006732 336.5555  23.5126 15.48885886561775
DUPLEX                  
1 66906U 98067XS  26112.27679192  .00025220  00000+0  32377-3 0  9997
2 66906  51.6276 210.9662 0004401 327.8426  32.2297 15.58950592 21921
ISS OBJECT XT           
1 66907U 98067XT  26111.94737444  .00435408  82929-4  13577-2 0  9994
2 66907  51.6184 201.9113 0011907 343.8034  16.2589 15.90867252 22016
ISS OBJECT XU           
1 66908U 98067XU  26110.99509683  .00476464  97406-4  15071-2 0  9995
2 66908  51.6197 206.8010 0011661 338.6358  21.4160 15.90584480 21863
