[{"OBJECT_NAME":"ISS (ZARYA)","OBJECT_ID":"1998-067A","EPOCH":"2026-04-22T04:47:46.932000","MEAN_MOTION":15.48885886,"ECCENTRICITY":0.00067323,"INCLINATION":51.6321,"RA_OF_ASC_NODE":217.2027,"ARG_OF_PERICENTER":336.5555,"MEAN_ANOMALY":23.5126,"EPHEMERIS_TYPE":0,"CLASSIFICATION_TYPE":"U","NORAD_CAT_ID":25544,"ELEMENT_SET_NO":999,"REV_AT_EPOCH":56307,"BSTAR":0.0001613791,"MEAN_MOTION_DOT":8.419e-5,"MEAN_MOTION_DDOT":0},{"OBJECT_NAME":"POISK","OBJECT_ID":"2009-060A","EPOCH":"2026-04-22T04:47:46.932000","MEAN_MOTION":15.48885886,"ECCENTRICITY":0.00067323,"INCLINATION":51.6321,"RA_OF_ASC_NODE":217.2027,"ARG_OF_PERICENTER":336.5555,"MEAN_ANOMALY":23.5126,"EPHEMERIS_TYPE":0,"CLASSIFICATION_TYPE":"U","NORAD_CAT_ID":36086,"ELEMENT_SET_NO":999,"REV_AT_EPOCH":56149,"BSTAR":0.0001613791,"MEAN_MOTION_DOT":8.419e-5,"MEAN_MOTION_DDOT":0},{"OBJECT_NAME":"CSS (TIANHE)","OBJECT_ID":"2021-035A","EPOCH":"2026-04-22T00:12:05.655456","MEAN_MOTION":15.62770991,"ECCENTRICITY":0.0006619,"INCLINATION":41.4677,"RA_OF_ASC_NODE":304.1649,"ARG_OF_PERICENTER":251.9708,"MEAN_ANOMALY":108.041,"EPHEMERIS_TYPE":0,"CLASSIFICATION_TYPE":"U","NORAD_CAT_ID":48274,"ELEMENT_SET_NO":999,"REV_AT_EPOCH":28438,"BSTAR":0.00026194074,"MEAN_MOTION_DOT":0.00024002,"MEAN_MOTION_DDOT":0},{"OBJECT_NAME":"ISS (NAUKA)","OBJECT_ID":"2021-066A","EPOCH":"2026-04-22T04:47:46.932000","MEAN_MOTION":15.48885886,"ECCENTRICITY":0.00067323,"INCLINATION":51.6321,"RA_OF_ASC_NODE":217.2027,"ARG_OF_PERICENTER":336.5555,"MEAN_ANOMALY":23.5126,"EPHEMERIS_TYPE":0,"CLASSIFICATION_TYPE":"U","NORAD_CAT_ID":49044,"ELEMENT_SET_NO":999,"REV_AT_EPOCH":56153,"BSTAR":0.0001613791,"MEAN_MOTION_DOT":8.419e-5,"MEAN_MOTION_DDOT":0},{"OBJECT_NAME":"FREGAT DEB","OBJECT_ID":"2011-037PF","EPOCH":"2026-04-21T05:11:50.977536","MEAN_MOTION":12.41014465,"ECCENTRICITY":0.09435538,"INCLINATION":51.6429,"RA_OF_ASC_NODE":173.0397,"ARG_OF_PERICENTER":156.8872,"MEAN_ANOMALY":207.7485,"EPHEMERIS_TYPE":0,"CLASSIFICATION_TYPE":"U","NORAD_CAT_ID":49271,"ELEMENT_SET_NO":999,"REV_AT_EPOCH":21797,"BSTAR":0.0047934804,"MEAN_MOTION_DOT":3.101e-5,"MEAN_MOTION_DDOT":0},{"OBJECT_NAME":"CSS (WENTIAN)","OBJECT_ID":"2022-085A","EPOCH":"2026-04-22T00:12:05.655456","MEAN_MOTION":15.62770991,"ECCENTRICITY":0.0006619,"INCLINATION":41.4677,"RA_OF_ASC_NODE":304.1649,"ARG_OF_PERICENTER":251.9708,"MEAN_ANOMALY":108.041,"EPHEMERIS_TYPE":0,"CLASSIFICATION_TYPE":"U","NORAD_CAT_ID":53239,"ELEMENT_SET_NO":999,"REV_AT_EPOCH":28313,"BSTAR":0.00026194074,"MEAN_MOTION_DOT":0.00024002,"MEAN_MOTION_DDOT":0},{"OBJECT_NAME":"CSS (MENGTIAN)","OBJECT_ID":"2022-143A","EPOCH":"2026-04-22T00:12:05.655456","MEAN_MOTION":15.62770991,"ECCENTRICITY":0.0006619,"INCLINATION":41.4677,"RA_OF_ASC_NODE":304.1649,"ARG_OF_PERICENTER":251.9708,"MEAN_ANOMALY":108.041,"EPHEMERIS_TYPE":0,"CLASSIFICATION_TYPE":"U","NORAD_CAT_ID":54216,"ELEMENT_SET_NO":999,"REV_AT_EPOCH":28406,"BSTAR":0.00026194074,"MEAN_MOTION_DOT":0.00024002,"MEAN_MOTION_DDOT":0},{"OBJECT_NAME":"TIANZHOU-9","OBJECT_ID":"2025-149A","EPOCH":"2026-04-22T00:12:05.655456","MEAN_MOTION":15.62770991,"ECCENTRICITY":0.0006619,"INCLINATION":41.4677,"RA_OF_ASC_NODE":304.1649,"ARG_OF_PERICENTER":251.9708,"MEAN_ANOMALY":108.041,"EPHEMERIS_TYPE":0,"CLASSIFICATION_TYPE":"U","NORAD_CAT_ID":64786,"ELEMENT_SET_NO":999,"REV_AT_EPOCH":28407,"BSTAR":0.00026194074,"MEAN_MOTION_DOT":0.00024002,"MEAN_MOTION_DDOT":0},{"OBJECT_NAME":"HRC MONOBLOCK CAMERA","OBJECT_ID":"1998-067XR","EPOCH":"2026-04-21T13:23:50.558784","MEAN_MOTION":15.66906404,"ECCENTRICITY":0.00044958,"INCLINATION":51.6257,"RA_OF_ASC_NODE":208.4044,"ARG_OF_PERICENTER":315.1253,"MEAN_ANOMALY":44.9379,"EPHEMERIS_TYPE":0,"CLASSIFICATION_TYPE":"U","NORAD_CAT_ID":66052,"ELEMENT_SET_NO":999,"REV_AT_EPOCH":2910,"BSTAR":0.00048529601,"MEAN_MOTION_DOT":0.00052279,"MEAN_MOTION_DDOT":0},{"OBJECT_NAME":"HTV-X1","OBJECT_ID":"2025-241A","EPOCH":"2026-04-22T06:35:59.682912","MEAN_MOTION":15.32721267,"ECCENTRICITY":0.00077964,"INCLINATION":51.6356,"RA_OF_ASC_NODE":222.8657,"ARG_OF_PERICENTER":341.4964,"MEAN_ANOMALY":18.5733,"EPHEMERIS_TYPE":0,"CLASSIFICATION_TYPE":"U","NORAD_CAT_ID":66174,"ELEMENT_SET_NO":999,"REV_AT_EPOCH":2762,"BSTAR":0.00014532319,"MEAN_MOTION_DOT":4.293e-5,"MEAN_MOTION_DDOT":0},{"OBJECT_NAME":"SZ-21 MODULE","OBJECT_ID":"2025-246C","EPOCH":"2026-04-21T19:29:07.099008","MEAN_MOTION":15.7188703,"ECCENTRICITY":0.00043411,"INCLINATION":41.4736,"RA_OF_ASC_NODE":297.2219,"ARG_OF_PERICENTER":305.2494,"MEAN_ANOMALY":54.7943,"EPHEMERIS_TYPE":0,"CLASSIFICATION_TYPE":"U","NORAD_CAT_ID":66515,"ELEMENT_SET_NO":999,"REV_AT_EPOCH":2485,"BSTAR":0.00028116252,"MEAN_MOTION_DOT":0.00037549,"MEAN_MOTION_DDOT":0},{"OBJECT_NAME":"SHENZHOU-22","OBJECT_ID":"2025-272A","EPOCH":"2026-04-22T00:12:05.655456","MEAN_MOTION":15.62770991,"ECCENTRICITY":0.0006619,"INCLINATION":41.4677,"RA_OF_ASC_NODE":304.1649,"ARG_OF_PERICENTER":251.9708,"MEAN_ANOMALY":108.041,"EPHEMERIS_TYPE":0,"CLASSIFICATION_TYPE":"U","NORAD_CAT_ID":66645,"ELEMENT_SET_NO":999,"REV_AT_EPOCH":28408,"BSTAR":0.00026194074,"MEAN_MOTION_DOT":0.00024002,"MEAN_MOTION_DDOT":0},{"OBJECT_NAME":"SOYUZ-MS 28","OBJECT_ID":"2025-275A","EPOCH":"2026-04-22T04:47:46.932000","MEAN_MOTION":15.48885886,"ECCENTRICITY":0.00067323,"INCLINATION":51.6321,"RA_OF_ASC_NODE":217.2027,"ARG_OF_PERICENTER":336.5555,"MEAN_ANOMALY":23.5126,"EPHEMERIS_TYPE":0,"CLASSIFICATION_TYPE":"U","NORAD_CAT_ID":66664,"ELEMENT_SET_NO":999,"REV_AT_EPOCH":56177,"BSTAR":0.0001613791,"MEAN_MOTION_DOT":8.419e-5,"MEAN_MOTION_DDOT":0},{"OBJECT_NAME":"DUPLEX","OBJECT_ID":"1998-067XS","EPOCH":"2026-04-22T06:38:34.821888","MEAN_MOTION":15.58950592,"ECCENTRICITY":0.00044013,"INCLINATION":51.6276,"RA_OF_ASC_NODE":210.9662,"ARG_OF_PERICENTER":327.8426,"MEAN_ANOMALY":32.2297,"EPHEMERIS_TYPE":0,"CLASSIFICATION_TYPE":"U","NORAD_CAT_ID":66906,"ELEMENT_SET_NO":999,"REV_AT_EPOCH":2192,"BSTAR":0.000323766,"MEAN_MOTION_DOT":0.0002522,"MEAN_MOTION_DDOT":0},{"OBJECT_NAME":"ISS OBJECT XT","OBJECT_ID":"1998-067XT","EPOCH":"2026-04-21T22:44:13.151616","MEAN_MOTION":15.90867252,"ECCENTRICITY":0.0011907,"INCLINATION":51.6184,"RA_OF_ASC_NODE":201.9113,"ARG_OF_PERICENTER":343.8034,"MEAN_ANOMALY":16.2589,"EPHEMERIS_TYPE":0,"CLASSIFICATION_TYPE":"U","NORAD_CAT_ID":66907,"ELEMENT_SET_NO":999,"REV_AT_EPOCH":2201,"BSTAR":0.0013577,"MEAN_MOTION_DOT":0.00435408,"MEAN_MOTION_DDOT":8.2929e-5},{"OBJECT_NAME":"ISS OBJECT XU","OBJECT_ID":"1998-067XU","EPOCH":"2026-04-20T23:52:56.366112","MEAN_MOTION":15.9058448,"ECCENTRICITY":0.00116611,"INCLINATION":51.6197,"RA_OF_ASC_NODE":206.801,"ARG_OF_PERICENTER":338.6358,"MEAN_ANOMALY":21.416,"EPHEMERIS_TYPE":0,"CLASSIFICATION_TYPE":"U","NORAD_CAT_ID":66908,"ELEMENT_SET_NO":999,"REV_AT_EPOCH":2186,"BSTAR":0.0015071062,"MEAN_MOTION_DOT":0.00476464,"MEAN_MOTION_DDOT":9.7406411e-5}]
